{"type": "FeatureCollection", "features": [ {"type": "Feature", "properties": {"norad_id": 66484, "name": "STARLINK-35371", "group": "last-30-days", "lat": 36.1394374342797, "lon": 124.07698180243352, "alt_km": 408.76271895464015, "timestamp": "2025-12-12T11:38:30.168872+00:00", "meta": {"OBJECT_NAME": "STARLINK-35371", "OBJECT_ID": "2025-262AE", "EPOCH": "2025-12-11T15:17:24.038592", "MEAN_MOTION": 15.50644165, "ECCENTRICITY": 0.00013158, "INCLINATION": 43.0001, "RA_OF_ASC_NODE": 77.4416, "ARG_OF_PERICENTER": 288.2599, "MEAN_ANOMALY": 71.8118, "EPHEMERIS_TYPE": 0, "CLASSIFICATION_TYPE": "U", "NORAD_CAT_ID": 66484, "ELEMENT_SET_NO": 999, "REV_AT_EPOCH": 539, "BSTAR": 0.0028524623, "MEAN_MOTION_DOT": 0.00171103, "MEAN_MOTION_DDOT": 0}, "tle": {"line1": "1 66484U 25262AE  25345.63708378  .00171103  00000+0  28525-2 0  9992", "line2": "2 66484  43.0001  77.4416 0001315 288.2599  71.8118 15.50644165  5390"}}, "geometry": {"type": "Point", "coordinates": [124.07698180243352, 36.1394374342797]}}, {"type": "Feature", "properties": {"norad_id": 66485, "name": "STARLINK-34774", "group": "last-30-days", "lat": -19.617446176652656, "lon": -30.63431264899152, "alt_km": 445.8887146532561, "timestamp": "2025-12-12T11:38:30.168883+00:00", "meta": {"OBJECT_NAME": "STARLINK-34774", "OBJECT_ID": "2025-263A", "EPOCH": "2025-12-12T04:00:01.998720", "MEAN_MOTION": 15.40653245, "ECCENTRICITY": 0.0002137, "INCLINATION": 43.0008, "RA_OF_ASC_NODE": 128.7132, "ARG_OF_PERICENTER": 291.1066, "MEAN_ANOMALY": 310.3782, "EPHEMERIS_TYPE": 0, "CLASSIFICATION_TYPE": "U", "NORAD_CAT_ID": 66485, "ELEMENT_SET_NO": 999, "REV_AT_EPOCH": 554, "BSTAR": 0.00068293, "MEAN_MOTION_DOT": 0.00028286, "MEAN_MOTION_DDOT": 0}, "tle": {"line1": "1 66485U 25263A   25346.16668980  .00028286  00000+0  68293-3 0  9997", "line2": "2 66485  43.0008 128.7132 0002137 291.1066 310.3782 15.40653245  5541"}}, "geometry": {"type": "Point", "coordinates": [-30.63431264899152, -19.617446176652656]}}, {"type": "Feature", "properties": {"norad_id": 66486, "name": "STARLINK-34844", "group": "last-30-days", "lat": -35.97639149818309, "lon": 75.48772407695124, "alt_km": 416.99422505934854, "timestamp": "2025-12-12T11:38:30.168894+00:00", "meta": {"OBJECT_NAME": "STARLINK-34844", "OBJECT_ID": "2025-263B", "EPOCH": "2025-12-12T00:00:04.999104", "MEAN_MOTION": 15.50512945, "ECCENTRICITY": 0.0001697, "INCLINATION": 43.0003, "RA_OF_ASC_NODE": 129.4939, "ARG_OF_PERICENTER": 278.5166, "MEAN_ANOMALY": 191.4414, "EPHEMERIS_TYPE": 0, "CLASSIFICATION_TYPE": "U", "NORAD_CAT_ID": 66486, "ELEMENT_SET_NO": 999, "REV_AT_EPOCH": 546, "BSTAR": 0.0011955, "MEAN_MOTION_DOT": 0.00070257, "MEAN_MOTION_DDOT": 0}, "tle": {"line1": "1 66486U 25263B   25346.00005786  .00070257  00000+0  11955-2 0  9997", "line2": "2 66486  43.0003 129.4939 0001697 278.5166 191.4414 15.50512945  5463"}}, "geometry": {"type": "Point", "coordinates": [75.48772407695124, -35.97639149818309]}}, {"type": "Feature", "properties": {"norad_id": 66487, "name": "STARLINK-34733", "group": "last-30-days", "lat": -39.96692169730574, "lon": 62.605176145095, "alt_km": 433.5110457581668, "timestamp": "2025-12-12T11:38:30.168929+00:00", "meta": {"OBJECT_NAME": "STARLINK-34733", "OBJECT_ID": "2025-263C", "EPOCH": "2025-12-11T22:00:01.999584", "MEAN_MOTION": 15.4745934, "ECCENTRICITY": 0.00016039, "INCLINATION": 43.0002, "RA_OF_ASC_NODE": 129.9882, "ARG_OF_PERICENTER": 277.4229, "MEAN_ANOMALY": 84.6221, "EPHEMERIS_TYPE": 0, "CLASSIFICATION_TYPE": "U", "NORAD_CAT_ID": 66487, "ELEMENT_SET_NO": 999, "REV_AT_EPOCH": 550, "BSTAR": -0.043703264, "MEAN_MOTION_DOT": -0.02044685, "MEAN_MOTION_DDOT": 0}, "tle": {"line1": "1 66487U 25263C   25345.91668981 -.02044685  00000+0 -43703-1 0  9994", "line2": "2 66487  43.0002 129.9882 0001603 277.4229  84.6221 15.47459340  5509"}}, "geometry": {"type": "Point", "coordinates": [62.605176145095, -39.96692169730574]}}, {"type": "Feature", "properties": {"norad_id": 66488, "name": "STARLINK-35515", "group": "last-30-days", "lat": -34.26101419988449, "lon": 79.6802126563298, "alt_km": 416.9634291757966, "timestamp": "2025-12-12T11:38:30.168941+00:00", "meta": {"OBJECT_NAME": "STARLINK-35515", "OBJECT_ID": "2025-263D", "EPOCH": "2025-12-12T00:00:04.999104", "MEAN_MOTION": 15.50502124, "ECCENTRICITY": 0.0001647, "INCLINATION": 43.0003, "RA_OF_ASC_NODE": 129.4852, "ARG_OF_PERICENTER": 273.2757, "MEAN_ANOMALY": 200.5218, "EPHEMERIS_TYPE": 0, "CLASSIFICATION_TYPE": "U", "NORAD_CAT_ID": 66488, "ELEMENT_SET_NO": 999, "REV_AT_EPOCH": 551, "BSTAR": 0.0016438, "MEAN_MOTION_DOT": 0.00097031, "MEAN_MOTION_DDOT": 0}, "tle": {"line1": "1 66488U 25263D   25346.00005786  .00097031  00000+0  16438-2 0  9999", "line2": "2 66488  43.0003 129.4852 0001647 273.2757 200.5218 15.50502124  5510"}}, "geometry": {"type": "Point", "coordinates": [79.6802126563298, -34.26101419988449]}}, {"type": "Feature", "properties": {"norad_id": 66489, "name": "STARLINK-35696", "group": "last-30-days", "lat": -33.35558519200001, "lon": 81.69927642631717, "alt_km": 416.97505646966056, "timestamp": "2025-12-12T11:38:30.168951+00:00", "meta": {"OBJECT_NAME": "STARLINK-35696", "OBJECT_ID": "2025-263E", "EPOCH": "2025-12-12T00:00:04.999104", "MEAN_MOTION": 15.50507446, "ECCENTRICITY": 0.0001762, "INCLINATION": 43.0003, "RA_OF_ASC_NODE": 129.4797, "ARG_OF_PERICENTER": 268.2838, "MEAN_ANOMALY": 207.4369, "EPHEMERIS_TYPE": 0, "CLASSIFICATION_TYPE": "U", "NORAD_CAT_ID": 66489, "ELEMENT_SET_NO": 999, "REV_AT_EPOCH": 551, "BSTAR": 0.0011909, "MEAN_MOTION_DOT": 0.00069973, "MEAN_MOTION_DDOT": 0}, "tle": {"line1": "1 66489U 25263E   25346.00005786  .00069973  00000+0  11909-2 0  9992", "line2": "2 66489  43.0003 129.4797 0001762 268.2838 207.4369 15.50507446  5516"}}, "geometry": {"type": "Point", "coordinates": [81.69927642631717, -33.35558519200001]}}, {"type": "Feature", "properties": {"norad_id": 66490, "name": "STARLINK-35693", "group": "last-30-days", "lat": -42.051840649810394, "lon": 22.21967330218125, "alt_km": 446.31989499160954, "timestamp": "2025-12-12T11:38:30.168962+00:00", "meta": {"OBJECT_NAME": "STARLINK-35693", "OBJECT_ID": "2025-263F", "EPOCH": "2025-12-12T04:00:01.998720", "MEAN_MOTION": 15.40644721, "ECCENTRICITY": 0.0001893, "INCLINATION": 43.0007, "RA_OF_ASC_NODE": 128.5916, "ARG_OF_PERICENTER": 285.1089, "MEAN_ANOMALY": 6.1814, "EPHEMERIS_TYPE": 0, "CLASSIFICATION_TYPE": "U", "NORAD_CAT_ID": 66490, "ELEMENT_SET_NO": 999, "REV_AT_EPOCH": 554, "BSTAR": 0.0010673, "MEAN_MOTION_DOT": 0.00044457, "MEAN_MOTION_DDOT": 0}, "tle": {"line1": "1 66490U 25263F   25346.16668980  .00044457  00000+0  10673-2 0  9999", "line2": "2 66490  43.0007 128.5916 0001893 285.1089   6.1814 15.40644721  5545"}}, "geometry": {"type": "Point", "coordinates": [22.21967330218125, -42.051840649810394]}}, {"type": "Feature", "properties": {"norad_id": 66491, "name": "STARLINK-35663", "group": "last-30-days", "lat": -30.508628453313435, "lon": 87.40494404359735, "alt_km": 416.5534471710598, "timestamp": "2025-12-12T11:38:30.168972+00:00", "meta": {"OBJECT_NAME": "STARLINK-35663", "OBJECT_ID": "2025-263G", "EPOCH": "2025-12-12T00:00:04.999104", "MEAN_MOTION": 15.50532857, "ECCENTRICITY": 0.0001751, "INCLINATION": 43.0002, "RA_OF_ASC_NODE": 129.4654, "ARG_OF_PERICENTER": 320.8425, "MEAN_ANOMALY": 160.4832, "EPHEMERIS_TYPE": 0, "CLASSIFICATION_TYPE": "U", "NORAD_CAT_ID": 66491, "ELEMENT_SET_NO": 999, "REV_AT_EPOCH": 551, "BSTAR": 0.0011704, "MEAN_MOTION_DOT": 0.00068814, "MEAN_MOTION_DDOT": 0}, "tle": {"line1": "1 66491U 25263G   25346.00005786  .00068814  00000+0  11704-2 0  9991", "line2": "2 66491  43.0002 129.4654 0001751 320.8425 160.4832 15.50532857  5512"}}, "geometry": {"type": "Point", "coordinates": [87.40494404359735, -30.508628453313435]}}, {"type": "Feature", "properties": {"norad_id": 66492, "name": "STARLINK-35673", "group": "last-30-days", "lat": -33.66306376904195, "lon": -7.567417164504134, "alt_km": 446.2135598849991, "timestamp": "2025-12-12T11:38:30.168983+00:00", "meta": {"OBJECT_NAME": "STARLINK-35673", "OBJECT_ID": "2025-263H", "EPOCH": "2025-12-12T04:00:01.998720", "MEAN_MOTION": 15.40660011, "ECCENTRICITY": 0.0001552, "INCLINATION": 43.0005, "RA_OF_ASC_NODE": 128.6509, "ARG_OF_PERICENTER": 272.021, "MEAN_ANOMALY": 354.3599, "EPHEMERIS_TYPE": 0, "CLASSIFICATION_TYPE": "U", "NORAD_CAT_ID": 66492, "ELEMENT_SET_NO": 999, "REV_AT_EPOCH": 554, "BSTAR": 0.00080259, "MEAN_MOTION_DOT": 0.00033325, "MEAN_MOTION_DDOT": 0}, "tle": {"line1": "1 66492U 25263H   25346.16668980  .00033325  00000+0  80259-3 0  9991", "line2": "2 66492  43.0005 128.6509 0001552 272.0210 354.3599 15.40660011  5545"}}, "geometry": {"type": "Point", "coordinates": [-7.567417164504134, -33.66306376904195]}}, {"type": "Feature", "properties": {"norad_id": 66493, "name": "STARLINK-35597", "group": "last-30-days", "lat": -28.366305243261976, "lon": 91.20767156561875, "alt_km": 416.69442510053887, "timestamp": "2025-12-12T11:38:30.168993+00:00", "meta": {"OBJECT_NAME": "STARLINK-35597", "OBJECT_ID": "2025-263J", "EPOCH": "2025-12-12T00:00:04.999104", "MEAN_MOTION": 15.50514915, "ECCENTRICITY": 0.0001737, "INCLINATION": 43.0003, "RA_OF_ASC_NODE": 129.455, "ARG_OF_PERICENTER": 274.9887, "MEAN_ANOMALY": 210.3079, "EPHEMERIS_TYPE": 0, "CLASSIFICATION_TYPE": "U", "NORAD_CAT_ID": 66493, "ELEMENT_SET_NO": 999, "REV_AT_EPOCH": 551, "BSTAR": 0.0011712, "MEAN_MOTION_DOT": 0.00068817, "MEAN_MOTION_DDOT": 0}, "tle": {"line1": "1 66493U 25263J   25346.00005786  .00068817  00000+0  11712-2 0  9995", "line2": "2 66493  43.0003 129.4550 0001737 274.9887 210.3079 15.50514915  5518"}}, "geometry": {"type": "Point", "coordinates": [91.20767156561875, -28.366305243261976]}}]}